STARLINK-4487           
1 53531U 22101E   22252.91667824 -.01112556  00000+0 -14867-1 0  9998
2 53531  53.2172  50.4119 0001847  33.8964 155.3324 15.60082299  1301
STARLINK-4483           
1 53532U 22101F   22252.91667824 -.01112552  00000+0 -14858-1 0  9995
2 53532  53.2173  50.4864 0001765  36.5344 154.1612 15.60098634  1308
STARLINK-4493           
1 53533U 22101G   22252.91667824 -.01112550  00000+0 -14854-1 0  9990
2 53533  53.2173  50.4908 0001728  37.8700 153.5601 15.60105894  1305
STARLINK-4488           
1 53534U 22101H   22252.91667824 -.01112757  00000+0 -14839-1 0  9993
2 53534  53.2173  50.5128 0001991  29.7781 164.5893 15.60135045  1308
STARLINK-4138           
1 53535U 22101J   22252.91667824 -.01112609  00000+0 -14846-1 0  9998
2 53535  53.2173  50.4986 0001841  34.0297 158.8693 15.60120372  1306
STARLINK-4053           
1 53536U 22101K   22252.91667824  .00023490  00000+0  17149-3 0  9996
2 53536  53.2159  50.1922 0001609  29.4780 294.1384 15.73176050  1304
STARLINK-4120           
1 53537U 22101L   22252.91667824 -.01112585  00000+0 -14851-1 0  9999
2 53537  53.2173  50.4918 0001613  42.5460 149.6187 15.60113030  1305
STARLINK-4118           
1 53538U 22101M   22252.91667824  .00064849  00000+0  46395-3 0  9996
2 53538  53.2157  50.1900 0001673  33.7579 290.4836 15.73146849  1309
STARLINK-4123           
1 53539U 22101N   22252.91667824 -.01112601  00000+0 -14842-1 0  9990
2 53539  53.2173  50.5057 0001780  35.9923 157.6410 15.60127687  1308
STARLINK-4486           
1 53540U 22101P   22252.91667824  .00065462  00000+0  46789-3 0  9998
2 53540  53.2161  50.1892 0001771  35.2496 290.1819 15.73165319  1302
STARLINK-4485           
1 53541U 22101Q   22252.91667824 -.01112592  00000+0 -14834-1 0  9993
2 53541  53.2173  50.5198 0001679  39.6667 155.4348 15.60142323  1300
STARLINK-4489           
1 53542U 22101R   22252.91667824  .00009770  00000+0  73982-4 0  9996
2 53542  53.2159  50.1860 0001848  28.1671 298.4501 15.73189754  1305
STARLINK-4297           
1 53543U 22101S   22252.91667824  .00064889  00000+0  46357-3 0  9994
2 53543  53.2160  50.1892 0001769  35.5701 289.2564 15.73180308  1304
STARLINK-4303           
1 53544U 22101T   22252.91667824  .00061530  00000+0  44028-3 0  9998
2 53544  53.2159  50.1840 0001799  34.9098 292.8952 15.73163934  1308
STARLINK-4475           
1 53545U 22101U   22252.91667824 -.00060500  00000+0 -42913-3 0  9998
2 53545  53.2161  50.1872 0001522  39.8583 286.1705 15.73232702  1306
STARLINK-4477           
1 53546U 22101V   22252.91667824  .00043278  00000+0  31161-3 0  9993
2 53546  53.2168  49.1051 0002247  28.0146 105.7069 15.73166665  1304
STARLINK-4474           
1 53547U 22101W   22252.91667824  .00033174  00000+0  24002-3 0  9994
2 53547  53.2162  50.1853 0001587  31.4133 295.7976 15.73182931  1302
STARLINK-4513           
1 53548U 22101X   22252.91667824 -.00033744  00000+0 -23701-3 0  9995
2 53548  53.2159  50.1793 0001747  34.5701 295.7279 15.73194752  1305
STARLINK-4516           
1 53549U 22101Y   22252.91667824 -.00006418  00000+0 -41347-4 0  9991
2 53549  53.2155  50.1807 0001677  36.8244 291.5689 15.73197382  1308
STARLINK-4518           
1 53550U 22101Z   22252.91667824 -.00020450  00000+0 -14149-3 0  9994
2 53550  53.2158  50.1772 0001767  31.9555 298.8423 15.73222813  1309
STARLINK-4514           
1 53551U 22101AA  22252.91667824 -.00001703  00000+0 -77213-5 0  9998
2 53551  53.2160  50.1818 0001771  32.0943 296.8909 15.73185165  1307
STARLINK-4495           
1 53552U 22101AB  22252.91667824  .00039304  00000+0  28358-3 0  9999
2 53552  53.2159  50.1751 0001745  31.7350 300.8528 15.73163647  1305
STARLINK-4501           
1 53553U 22101AC  22252.91667824  .00025729  00000+0  18721-3 0  9999
2 53553  53.2159  50.1762 0001748  32.4836 298.9266 15.73195352  1302
STARLINK-4506           
1 53554U 22101AD  22252.91667824  .00030394  00000+0  22024-3 0  9995
2 53554  53.2157  50.1713 0001623  42.2230 291.5590 15.73194593  1301
STARLINK-4504           
1 53555U 22101AE  22252.91667824  .00061431  00000+0  43966-3 0  9990
2 53555  53.2155  50.1739 0001732  35.0556 296.9069 15.73159977  1307
STARLINK-4505           
1 53556U 22101AF  22252.91667824  .00007402  00000+0  57039-4 0  9996
2 53556  53.2157  50.1690 0001779  26.6665 308.3015 15.73231293  1305
STARLINK-4502           
1 53557U 22101AG  22252.91667824  .00012749  00000+0  95160-4 0  9994
2 53557  53.2156  50.1726 0001678  40.3608 292.8504 15.73188825  1305
STARLINK-4494           
1 53558U 22101AH  22252.91667824  .00006191  00000+0  48505-4 0  9990
2 53558  53.2158  50.1683 0001662  38.2749 297.8625 15.73197331  1306
STARLINK-4508           
1 53559U 22101AJ  22252.91667824  .00004241  00000+0  34634-4 0  9993
2 53559  53.2157  50.1709 0001749  34.8377 299.5517 15.73190510  1301
STARLINK-4564           
1 53560U 22101AK  22252.91667824  .00073421  00000+0  52394-3 0  9993
2 53560  53.2155  50.1646 0001845  35.9268 301.4732 15.73156435  1309
STARLINK-4563           
1 53561U 22101AL  22252.91667824  .00033285  00000+0  24065-3 0  9992
2 53561  53.2157  50.1674 0001821  33.6936 301.8853 15.73197651  1307
STARLINK-4565           
1 53562U 22101AM  22252.91667824  .00065122  00000+0  46571-3 0  9994
2 53562  53.2155  50.1623 0001846  33.6027 304.9195 15.73154588  1303
STARLINK-4561           
1 53563U 22101AN  22252.91667824  .00082850  00000+0  58992-3 0  9992
2 53563  53.2158  50.1659 0001800  34.3621 302.3982 15.73159807  1309
STARLINK-4577           
1 53564U 22101AP  22252.91667824  .00033698  00000+0  24379-3 0  9991
2 53564  53.2154  50.1591 0001668  39.3602 300.3928 15.73176732  1301
STARLINK-4575           
1 53565U 22101AQ  22252.91667824 -.00016632  00000+0 -11429-3 0  9995
2 53565  53.2155  50.1628 0001667  37.4173 300.6346 15.73203679  1303
STARLINK-4576           
1 53566U 22101AR  22252.91667824  .00027156  00000+0  19731-3 0  9991
2 53566  53.2155  50.1581 0001839  34.0435 306.8243 15.73195967  1301
STARLINK-4585           
1 53567U 22101AS  22252.91667824  .00019249  00000+0  14128-3 0  9991
2 53567  53.2156  50.1608 0001777  27.6822 311.5483 15.73195687  1300
STARLINK-4583           
1 53568U 22101AT  22252.91667824  .00079912  00000+0  57004-3 0  9995
2 53568  53.2155  50.1540 0001920  32.5862 310.1639 15.73131510  1307
STARLINK-4582           
1 53569U 22101AU  22252.91667824  .00030497  00000+0  22108-3 0  9998
2 53569  53.2155  50.1584 0001818  32.7861 307.5277 15.73182405  1300
STARLINK-4550           
1 53570U 22101AV  22252.91667824  .00011877  00000+0  88943-4 0  9991
2 53570  53.2155  50.1555 0001662  32.7959 309.3375 15.73193781  1303
STARLINK-4584           
1 53571U 22101AW  22252.91667824  .00034112  00000+0  24663-3 0  9997
2 53571  53.2155  50.1557 0001726  36.6033 304.9211 15.73185522  1307
STARLINK-4555           
1 53572U 22101AX  22252.91667824  .00015502  00000+0  11468-3 0  9999
2 53572  53.2157  50.1506 0001967  25.2276 319.2959 15.73196617  1309
STARLINK-4547           
1 53573U 22101AY  22252.91667824  .00053299  00000+0  38192-3 0  9998
2 53573  53.2157  50.1523 0001895  31.5250 311.8117 15.73189972  1301
STARLINK-4559           
1 53574U 22101AZ  22252.91667824 -.00009880  00000+0 -65996-4 0  9991
2 53574  53.2160  50.1492 0001906  31.1258 314.5865 15.73218994  1305
STARLINK-4551           
1 53575U 22101BA  22252.91667824  .00028517  00000+0  20711-3 0  9993
2 53575  53.2155  50.1516 0001829  32.2536 311.6712 15.73177033  1309
STARLINK-4581           
1 53576U 22101BB  22252.91667824  .00064475  00000+0  46110-3 0  9998
2 53576  53.2153  50.1462 0001894  28.3035 317.9691 15.73157691  1303
STARLINK-4553           
1 53577U 22101BC  22252.91667824  .00023483  00000+0  17161-3 0  9997
2 53577  53.2155  50.1483 0001754  26.9910 318.2170 15.73152590  1309
STARLINK-4556           
1 53578U 22101BD  22252.91667824  .00023958  00000+0  17470-3 0  9998
2 53578  53.2156  50.1462 0001882  29.1555 317.7403 15.73190069  1306
STARLINK-4580           
1 53579U 22101BE  22252.91667824 -.00018981  00000+0 -13115-3 0  9993
2 53579  53.2156  50.1443 0001834  29.8606 317.6651 15.73192818  1305
FALCON 9 DEB            
1 53580U 22101BF  22251.69903974  .06630223  12236-4  58430-3 0  9999
2 53580  53.2077  52.2940 0010089 118.4804 241.7262 16.38230071  3214
FALCON 9 DEB            
1 53581U 22101BG  22251.87823506  .07763753  12306-4  56387-3 0  9995
2 53581  53.1994  51.2645 0007744 109.0751 251.1137 16.39930548  3240
FALCON 9 DEB            
1 53582U 22101BH  22251.92466758  .09832904  12462-4  28754-3 0  9991
2 53582  53.2126  50.8388 0003632 118.1516 241.9902 16.45196635  3256
FALCON 9 DEB            
1 53583U 22101BJ  22251.92182980  .07711824  12398-4  35486-3 0  9997
2 53583  53.2129  50.8020 0005288 111.8467 248.3145 16.43049681  3253
CHUANGXIN 16 (CX-16)    
1 53586U 22102A   22252.68951347  .00001658  00000+0  14798-3 0  9991
2 53586  29.0002 255.2340 0004911  72.5105 287.5940 14.91671744  2638
BEIJING-3B              
1 53587U 22103A   22251.79874304  .00000290  00000+0  38291-4 0  9997
2 53587  97.9403 320.4244 0013778 207.3599 268.3755 14.87297803  2335
STARLINK-4691           
1 53588U 22104A   22252.91667824  .00011897  00000+0  88812-4 0  9990
2 53588  53.2153 224.7227 0000978 268.3564 283.0929 15.73265395  1307
STARLINK-4673           
1 53589U 22104B   22252.91667824  .00053007  00000+0  37948-3 0  9993
2 53589  53.2156 224.7167 0000625 270.8754 283.7082 15.73214638  1303
STARLINK-4689           
1 53590U 22104C   22252.91667824 -.00004267  00000+0 -25967-4 0  9990
2 53590  53.2149 224.7204 0001066  90.7626 101.4449 15.73232038  1303
STARLINK-4674           
1 53591U 22104D   22252.91667824  .00085005  00000+0  60488-3 0  9994
2 53591  53.2152 224.7194 0001230  82.2523 110.5060 15.73164726  1309
